CENTAURI-6              
1 59451U 24066K   26068.32290132  .00007311  00000+0  52686-3 0  9997
2 59451  45.6063  55.7055 0002534 285.4438  74.6166 15.04786474105074
STARLINK-34703          
1 65387U 25191J   26068.64258904  .00004923  00000+0  34514-3 0  9994
2 65387  97.6023 301.5004 0002511  76.2496 283.9010 15.05650979 30265
