[{"OBJECT_NAME":"CENTAURI-6","OBJECT_ID":"2024-066K","EPOCH":"2026-03-09T07:44:58.674048","MEAN_MOTION":15.04786474,"ECCENTRICITY":0.00025343,"INCLINATION":45.6063,"RA_OF_ASC_NODE":55.7055,"ARG_OF_PERICENTER":285.4438,"MEAN_ANOMALY":74.6166,"EPHEMERIS_TYPE":0,"CLASSIFICATION_TYPE":"U","NORAD_CAT_ID":59451,"ELEMENT_SET_NO":999,"REV_AT_EPOCH":10507,"BSTAR":0.00052686271,"MEAN_MOTION_DOT":7.311e-5,"MEAN_MOTION_DDOT":0},{"OBJECT_NAME":"STARLINK-34703","OBJECT_ID":"2025-191J","EPOCH":"2026-03-09T15:25:19.693056","MEAN_MOTION":15.05650979,"ECCENTRICITY":0.0002511,"INCLINATION":97.6023,"RA_OF_ASC_NODE":301.5004,"ARG_OF_PERICENTER":76.2496,"MEAN_ANOMALY":283.901,"EPHEMERIS_TYPE":0,"CLASSIFICATION_TYPE":"U","NORAD_CAT_ID":65387,"ELEMENT_SET_NO":999,"REV_AT_EPOCH":3026,"BSTAR":0.00034514,"MEAN_MOTION_DOT":4.923e-5,"MEAN_MOTION_DDOT":0}]
